{
  "type": "FeatureCollection",
  "features": [
    {
      "type": "Feature",
      "properties": {
        "norad_id": 37867,
        "name": "COSMOS 2476 (744)",
        "group": "glo-ops",
        "lat": -58.15947000793888,
        "lon": 31.124019456795512,
        "alt_km": 19103.06823081711,
        "timestamp": "2025-12-10T05:46:14.082836+00:00",
        "meta_object_name": "COSMOS 2476 (744)",
        "meta_object_id": "2011-064A",
        "meta_epoch": "2025-12-09T09:41:55.720032",
        "meta_mean_motion": 2.13101239,
        "meta_eccentricity": 0.0023895,
        "meta_inclination": 65.1605,
        "meta_ra_of_asc_node": 79.2843,
        "meta_arg_of_pericenter": 233.5536,
        "meta_mean_anomaly": 135.2332,
        "meta_ephemeris_type": 0,
        "meta_classification_type": "U",
        "meta_norad_cat_id": 37867,
        "meta_element_set_no": 999,
        "meta_rev_at_epoch": 10972,
        "meta_bstar": 0,
        "meta_mean_motion_dot": -1.4e-07,
        "meta_mean_motion_ddot": 0,
        "tle_line1": "1 37867U 11064A   25343.40411713 -.00000014  00000+0  00000+0 0  9995",
        "tle_line2": "2 37867  65.1605  79.2843 0023895 233.5536 135.2332  2.13101239109723"
      },
      "geometry": {
        "type": "Point",
        "coordinates": [
          31.124019456795512,
          -58.15947000793888
        ]
      }
    },
    {
      "type": "Feature",
      "properties": {
        "norad_id": 37868,
        "name": "COSMOS 2477 (745)",
        "group": "glo-ops",
        "lat": 57.85415685542224,
        "lon": -148.03110132636732,
        "alt_km": 19152.641483657084,
        "timestamp": "2025-12-10T05:46:14.082848+00:00",
        "meta_object_name": "COSMOS 2477 (745)",
        "meta_object_id": "2011-064B",
        "meta_epoch": "2025-12-09T06:11:12.657696",
        "meta_mean_motion": 2.13102656,
        "meta_eccentricity": 0.0021072,
        "meta_inclination": 65.167,
        "meta_ra_of_asc_node": 79.367,
        "meta_arg_of_pericenter": 234.1716,
        "meta_mean_anomaly": 203.2692,
        "meta_ephemeris_type": 0,
        "meta_classification_type": "U",
        "meta_norad_cat_id": 37868,
        "meta_element_set_no": 999,
        "meta_rev_at_epoch": 10971,
        "meta_bstar": 0,
        "meta_mean_motion_dot": -1.4e-07,
        "meta_mean_motion_ddot": 0,
        "tle_line1": "1 37868U 11064B   25343.25778539 -.00000014  00000+0  00000+0 0  9991",
        "tle_line2": "2 37868  65.1670  79.3670 0021072 234.1716 203.2692  2.13102656109715"
      },
      "geometry": {
        "type": "Point",
        "coordinates": [
          -148.03110132636732,
          57.85415685542224
        ]
      }
    },
    {
      "type": "Feature",
      "properties": {
        "norad_id": 37869,
        "name": "COSMOS 2475 (743)",
        "group": "glo-ops",
        "lat": 56.84617112222479,
        "lon": 124.39662060473619,
        "alt_km": 19190.142127357085,
        "timestamp": "2025-12-10T05:46:14.082859+00:00",
        "meta_object_name": "COSMOS 2475 (743)",
        "meta_object_id": "2011-064C",
        "meta_epoch": "2025-12-09T06:02:05.700768",
        "meta_mean_motion": 2.13101306,
        "meta_eccentricity": 0.0026081,
        "meta_inclination": 65.1742,
        "meta_ra_of_asc_node": 79.3871,
        "meta_arg_of_pericenter": 248.2695,
        "meta_mean_anomaly": 140.2782,
        "meta_ephemeris_type": 0,
        "meta_classification_type": "U",
        "meta_norad_cat_id": 37869,
        "meta_element_set_no": 999,
        "meta_rev_at_epoch": 10972,
        "meta_bstar": 0,
        "meta_mean_motion_dot": -1.3e-07,
        "meta_mean_motion_ddot": 0,
        "tle_line1": "1 37869U 11064C   25343.25145487 -.00000013  00000+0  00000+0 0  9991",
        "tle_line2": "2 37869  65.1742  79.3871 0026081 248.2695 140.2782  2.13101306109728"
      },
      "geometry": {
        "type": "Point",
        "coordinates": [
          124.39662060473619,
          56.84617112222479
        ]
      }
    },
    {
      "type": "Feature",
      "properties": {
        "norad_id": 39155,
        "name": "COSMOS 2485 (747)",
        "group": "glo-ops",
        "lat": -19.05612326318102,
        "lon": 70.8283648902767,
        "alt_km": 19153.916053991805,
        "timestamp": "2025-12-10T05:46:14.082870+00:00",
        "meta_object_name": "COSMOS 2485 (747)",
        "meta_object_id": "2013-019A",
        "meta_epoch": "2025-12-09T07:54:23.495904",
        "meta_mean_motion": 2.1310286,
        "meta_eccentricity": 0.0024563,
        "meta_inclination": 65.3117,
        "meta_ra_of_asc_node": 79.982,
        "meta_arg_of_pericenter": 229.1601,
        "meta_mean_anomaly": 130.6433,
        "meta_ephemeris_type": 0,
        "meta_classification_type": "U",
        "meta_norad_cat_id": 39155,
        "meta_element_set_no": 999,
        "meta_rev_at_epoch": 9823,
        "meta_bstar": 0,
        "meta_mean_motion_dot": -1.3e-07,
        "meta_mean_motion_ddot": 0,
        "tle_line1": "1 39155U 13019A   25343.32943861 -.00000013  00000+0  00000+0 0  9993",
        "tle_line2": "2 39155  65.3117  79.9820 0024563 229.1601 130.6433  2.13102860 98239"
      },
      "geometry": {
        "type": "Point",
        "coordinates": [
          70.8283648902767,
          -19.05612326318102
        ]
      }
    },
    {
      "type": "Feature",
      "properties": {
        "norad_id": 39620,
        "name": "COSMOS 2492 (754)",
        "group": "glo-ops",
        "lat": 9.691646577500185,
        "lon": -35.17049943840457,
        "alt_km": 19110.79317227235,
        "timestamp": "2025-12-10T05:46:14.082881+00:00",
        "meta_object_name": "COSMOS 2492 (754)",
        "meta_object_id": "2014-012A",
        "meta_epoch": "2025-12-09T06:54:46.186848",
        "meta_mean_motion": 2.13102988,
        "meta_eccentricity": 0.00142075,
        "meta_inclination": 65.4097,
        "meta_ra_of_asc_node": 320.3884,
        "meta_arg_of_pericenter": 310.998,
        "meta_mean_anomaly": 48.8757,
        "meta_ephemeris_type": 0,
        "meta_classification_type": "U",
        "meta_norad_cat_id": 39620,
        "meta_element_set_no": 999,
        "meta_rev_at_epoch": 9119,
        "meta_bstar": 0,
        "meta_mean_motion_dot": -4.9e-07,
        "meta_mean_motion_ddot": 0,
        "tle_line1": "1 39620U 14012A   25343.28803457 -.00000049  00000+0  00000+0 0  9994",
        "tle_line2": "2 39620  65.4097 320.3884 0014207 310.9980  48.8757  2.13102988 91198"
      },
      "geometry": {
        "type": "Point",
        "coordinates": [
          -35.17049943840457,
          9.691646577500185
        ]
      }
    },
    {
      "type": "Feature",
      "properties": {
        "norad_id": 40001,
        "name": "COSMOS 2500 (755)",
        "group": "glo-ops",
        "lat": -50.81812177761058,
        "lon": 174.39579987221762,
        "alt_km": 19115.455116869765,
        "timestamp": "2025-12-10T05:46:14.082892+00:00",
        "meta_object_name": "COSMOS 2500 (755)",
        "meta_object_id": "2014-032A",
        "meta_epoch": "2025-12-09T11:02:48.490944",
        "meta_mean_motion": 2.13105796,
        "meta_eccentricity": 0.000831,
        "meta_inclination": 65.3451,
        "meta_ra_of_asc_node": 320.1442,
        "meta_arg_of_pericenter": 219.1348,
        "meta_mean_anomaly": 140.802,
        "meta_ephemeris_type": 0,
        "meta_classification_type": "U",
        "meta_norad_cat_id": 40001,
        "meta_element_set_no": 999,
        "meta_rev_at_epoch": 8941,
        "meta_bstar": 0,
        "meta_mean_motion_dot": -4.9e-07,
        "meta_mean_motion_ddot": 0,
        "tle_line1": "1 40001U 14032A   25343.46028346 -.00000049  00000+0  00000+0 0  9997",
        "tle_line2": "2 40001  65.3451 320.1442 0008310 219.1348 140.8020  2.13105796 89418"
      },
      "geometry": {
        "type": "Point",
        "coordinates": [
          174.39579987221762,
          -50.81812177761058
        ]
      }
    },
    {
      "type": "Feature",
      "properties": {
        "norad_id": 40315,
        "name": "COSMOS 2501 (702K)",
        "group": "glo-ops",
        "lat": 34.421941717658285,
        "lon": -143.19525066273167,
        "alt_km": 19175.707153069347,
        "timestamp": "2025-12-10T05:46:14.082903+00:00",
        "meta_object_name": "COSMOS 2501 (702K)",
        "meta_object_id": "2014-075A",
        "meta_epoch": "2025-12-07T20:13:51.362112",
        "meta_mean_motion": 2.13101338,
        "meta_eccentricity": 0.00201356,
        "meta_inclination": 63.6139,
        "meta_ra_of_asc_node": 196.9947,
        "meta_arg_of_pericenter": 204.4913,
        "meta_mean_anomaly": 155.4908,
        "meta_ephemeris_type": 0,
        "meta_classification_type": "U",
        "meta_norad_cat_id": 40315,
        "meta_element_set_no": 999,
        "meta_rev_at_epoch": 8577,
        "meta_bstar": 0,
        "meta_mean_motion_dot": 5.4e-07,
        "meta_mean_motion_ddot": 0,
        "tle_line1": "1 40315U 14075A   25341.84295558  .00000054  00000+0  00000+0 0  9998",
        "tle_line2": "2 40315  63.6139 196.9947 0020135 204.4913 155.4908  2.13101338 85773"
      },
      "geometry": {
        "type": "Point",
        "coordinates": [
          -143.19525066273167,
          34.421941717658285
        ]
      }
    }
  ]
}